start=new Date('2022-04-20T00:00:00.000Z').valueOf();
sats=[{"MEAN_MOTION_DOT":"0.00011802","PERIOD":"95.591","MEAN_ELEMENT_THEORY":"SGP4","MEAN_MOTION_DDOT":"0.0000000000000","LAUNCH_DATE":"2020-08-07","GP_ID":"201624443","INCLINATION":"53.0553","REV_AT_EPOCH":"9497","TLE_LINE2":"2 46049  53.0553  12.3673 0001574  70.3575 289.7584 15.06424441 94975","ELEMENT_SET_NO":"999","NORAD_CAT_ID":"46049","ECCENTRICITY":"0.00015740","SITE":"AFETR","FILE":"3408368","EPHEMERIS_TYPE":"0","RCS_SIZE":"LARGE","BSTAR":"0.00080937000000","EPOCH":"2022-04-19T10:35:53.454624","OBJECT_ID":"2020-055Y","CENTER_NAME":"EARTH","TIME_SYSTEM":"UTC","APOAPSIS":"548.229","OBJECT_NAME":"STARLINK-1530","RA_OF_ASC_NODE":"12.3673","TLE_LINE1":"1 46049U 20055Y   22109.44159091  .00011802  00000-0  80937-3 0  9994","OBJECT_TYPE":"PAYLOAD","REF_FRAME":"TEME","ARG_OF_PERICENTER":"70.3575","PERIAPSIS":"546.049","MEAN_MOTION":"15.06424441","MEAN_ANOMALY":"289.7584","DECAY_DATE":null,"COUNTRY_CODE":"US","SEMIMAJOR_AXIS":"6925.274","CLASSIFICATION_TYPE":"U"},{"OBJECT_ID":"2020-055AA","CENTER_NAME":"EARTH","TIME_SYSTEM":"UTC","APOAPSIS":"548.330","BSTAR":"0.00044568000000","EPOCH":"2022-04-19T03:31:16.324608","ARG_OF_PERICENTER":"77.8047","OBJECT_NAME":"STARLINK-1540","OBJECT_TYPE":"PAYLOAD","TLE_LINE1":"1 46051U 20055AA  22109.14671672  .00006365  00000-0  44568-3 0  9996","RA_OF_ASC_NODE":"13.6814","REF_FRAME":"TEME","MEAN_MOTION":"15.06408688","MEAN_ANOMALY":"282.3126","PERIAPSIS":"546.044","CLASSIFICATION_TYPE":"U","DECAY_DATE":null,"COUNTRY_CODE":"US","SEMIMAJOR_AXIS":"6925.322","PERIOD":"95.592","MEAN_ELEMENT_THEORY":"SGP4","MEAN_MOTION_DOT":"0.00006365","MEAN_MOTION_DDOT":"0.0000000000000","LAUNCH_DATE":"2020-08-07","REV_AT_EPOCH":"9493","INCLINATION":"53.0555","GP_ID":"201624693","SITE":"AFETR","FILE":"3408368","EPHEMERIS_TYPE":"0","RCS_SIZE":"LARGE","TLE_LINE2":"2 46051  53.0555  13.6814 0001651  77.8047 282.3126 15.06408688 94935","NORAD_CAT_ID":"46051","ELEMENT_SET_NO":"999","ECCENTRICITY":"0.00016510"},{"MEAN_MOTION_DDOT":"0.0000000000000","LAUNCH_DATE":"2020-08-07","MEAN_MOTION_DOT":"0.00008935","PERIOD":"95.591","MEAN_ELEMENT_THEORY":"SGP4","TLE_LINE2":"2 46052  53.0539  11.9510 0001554  78.2516 281.8647 15.06419119 94955","NORAD_CAT_ID":"46052","ELEMENT_SET_NO":"999","ECCENTRICITY":"0.00015540","FILE":"3408368","EPHEMERIS_TYPE":"0","SITE":"AFETR","RCS_SIZE":"LARGE","GP_ID":"201625445","INCLINATION":"53.0539","REV_AT_EPOCH":"9495","OBJECT_NAME":"STARLINK-1541","TLE_LINE1":"1 46052U 20055AB  22109.53005035  .00008935  00000-0  61764-3 0  9996","OBJECT_TYPE":"PAYLOAD","RA_OF_ASC_NODE":"11.9510","REF_FRAME":"TEME","ARG_OF_PERICENTER":"78.2516","BSTAR":"0.00061764000000","EPOCH":"2022-04-19T12:43:16.350240","OBJECT_ID":"2020-055AB","CENTER_NAME":"EARTH","TIME_SYSTEM":"UTC","APOAPSIS":"548.231","DECAY_DATE":null,"COUNTRY_CODE":"US","SEMIMAJOR_AXIS":"6925.290","CLASSIFICATION_TYPE":"U","PERIAPSIS":"546.079","MEAN_MOTION":"15.06419119","MEAN_ANOMALY":"281.8647"},{"MEAN_MOTION":"15.06405312","MEAN_ANOMALY":"267.7851","PERIAPSIS":"546.030","CLASSIFICATION_TYPE":"U","DECAY_DATE":null,"COUNTRY_CODE":"US","SEMIMAJOR_AXIS":"6925.332","OBJECT_ID":"2020-055AC","CENTER_NAME":"EARTH","APOAPSIS":"548.364","TIME_SYSTEM":"UTC","BSTAR":"0.00043015000000","EPOCH":"2022-04-19T17:35:11.381568","ARG_OF_PERICENTER":"92.3331","OBJECT_NAME":"STARLINK-1543","RA_OF_ASC_NODE":"11.0447","TLE_LINE1":"1 46053U 20055AC  22109.73277062  .00006132  00000-0  43015-3 0  9996","OBJECT_TYPE":"PAYLOAD","REF_FRAME":"TEME","REV_AT_EPOCH":"9449","INCLINATION":"53.0575","GP_ID":"201634604","EPHEMERIS_TYPE":"0","FILE":"3408534","SITE":"AFETR","RCS_SIZE":"LARGE","NORAD_CAT_ID":"46053","TLE_LINE2":"2 46053  53.0575  11.0447 0001685  92.3331 267.7851 15.06405312 94492","ELEMENT_SET_NO":"999","ECCENTRICITY":"0.00016850","PERIOD":"95.592","MEAN_ELEMENT_THEORY":"SGP4","MEAN_MOTION_DOT":"0.00006132","MEAN_MOTION_DDOT":"0.0000000000000","LAUNCH_DATE":"2020-08-07"},{"LAUNCH_DATE":"2020-08-07","MEAN_MOTION_DDOT":"0.0000000000000","PERIOD":"95.591","MEAN_ELEMENT_THEORY":"SGP4","MEAN_MOTION_DOT":"0.00002504","FILE":"3408534","EPHEMERIS_TYPE":"0","SITE":"AFETR","RCS_SIZE":"LARGE","ELEMENT_SET_NO":"999","TLE_LINE2":"2 46054  53.0565  11.0183 0001651  76.2044 283.9128 15.06414148 94476","NORAD_CAT_ID":"46054","ECCENTRICITY":"0.00016510","REV_AT_EPOCH":"9447","INCLINATION":"53.0565","GP_ID":"201635109","ARG_OF_PERICENTER":"76.2044","OBJECT_TYPE":"PAYLOAD","TLE_LINE1":"1 46054U 20055AD  22109.74014689  .00002504  00000-0  18685-3 0  9996","RA_OF_ASC_NODE":"11.0183","OBJECT_NAME":"STARLINK-1548","REF_FRAME":"TEME","CENTER_NAME":"EARTH","OBJECT_ID":"2020-055AD","APOAPSIS":"548.314","TIME_SYSTEM":"UTC","EPOCH":"2022-04-19T17:45:48.691296","BSTAR":"0.00018685000000","CLASSIFICATION_TYPE":"U","DECAY_DATE":null,"SEMIMAJOR_AXIS":"6925.305","COUNTRY_CODE":"US","MEAN_MOTION":"15.06414148","MEAN_ANOMALY":"283.9128","PERIAPSIS":"546.027"},{"PERIOD":"95.592","MEAN_ELEMENT_THEORY":"SGP4","MEAN_MOTION_DOT":"0.00003921","MEAN_MOTION_DDOT":"0.0000000000000","LAUNCH_DATE":"2020-08-07","REV_AT_EPOCH":"9497","GP_ID":"201625194","INCLINATION":"53.0544","FILE":"3408368","SITE":"AFETR","EPHEMERIS_TYPE":"0","RCS_SIZE":"LARGE","TLE_LINE2":"2 46055  53.0544  12.2901 0001552  72.7825 287.3333 15.06403548 94976","NORAD_CAT_ID":"46055","ELEMENT_SET_NO":"999","ECCENTRICITY":"0.00015520","OBJECT_ID":"2020-055AE","CENTER_NAME":"EARTH","APOAPSIS":"548.277","TIME_SYSTEM":"UTC","BSTAR":"0.00028192000000","EPOCH":"2022-04-19T11:02:25.448928","ARG_OF_PERICENTER":"72.7825","OBJECT_NAME":"STARLINK-1554","TLE_LINE1":"1 46055U 20055AE  22109.46001677  .00003921  00000-0  28192-3 0  9997","OBJECT_TYPE":"PAYLOAD","RA_OF_ASC_NODE":"12.2901","REF_FRAME":"TEME","MEAN_MOTION":"15.06403548","MEAN_ANOMALY":"287.3333","PERIAPSIS":"546.128","CLASSIFICATION_TYPE":"U","DECAY_DATE":null,"COUNTRY_CODE":"US","SEMIMAJOR_AXIS":"6925.338"},{"EPOCH":"2022-04-19T17:56:25.658016","BSTAR":"0.00012411000000","TIME_SYSTEM":"UTC","APOAPSIS":"548.402","CENTER_NAME":"EARTH","OBJECT_ID":"2020-055AF","REF_FRAME":"TEME","RA_OF_ASC_NODE":"10.9853","TLE_LINE1":"1 46056U 20055AF  22109.74751919  .00001567  00000-0  12411-3 0  9991","OBJECT_TYPE":"PAYLOAD","OBJECT_NAME":"STARLINK-1561","ARG_OF_PERICENTER":"55.0727","PERIAPSIS":"546.053","MEAN_ANOMALY":"305.0421","MEAN_MOTION":"15.06395578","SEMIMAJOR_AXIS":"6925.362","COUNTRY_CODE":"US","DECAY_DATE":null,"CLASSIFICATION_TYPE":"U","MEAN_MOTION_DOT":"0.00001567","MEAN_ELEMENT_THEORY":"SGP4","PERIOD":"95.592","LAUNCH_DATE":"2020-08-07","MEAN_MOTION_DDOT":"0.0000000000000","INCLINATION":"53.0566","GP_ID":"201635178","REV_AT_EPOCH":"9448","ECCENTRICITY":"0.00016960","NORAD_CAT_ID":"46056","TLE_LINE2":"2 46056  53.0566  10.9853 0001696  55.0727 305.0421 15.06395578 94481","ELEMENT_SET_NO":"999","RCS_SIZE":"LARGE","SITE":"AFETR","FILE":"3408552","EPHEMERIS_TYPE":"0"},{"PERIAPSIS":"546.183","MEAN_ANOMALY":"282.1174","MEAN_MOTION":"15.06398068","COUNTRY_CODE":"US","SEMIMAJOR_AXIS":"6925.354","DECAY_DATE":null,"CLASSIFICATION_TYPE":"U","BSTAR":"0.00008444400000","EPOCH":"2022-04-19T10:14:39.112512","APOAPSIS":"548.256","TIME_SYSTEM":"UTC","OBJECT_ID":"2020-055AH","CENTER_NAME":"EARTH","REF_FRAME":"TEME","OBJECT_NAME":"STARLINK-1564","TLE_LINE1":"1 46058U 20055AH  22109.42684158  .00000976  00000-0  84444-4 0  9997","OBJECT_TYPE":"PAYLOAD","RA_OF_ASC_NODE":"12.4158","ARG_OF_PERICENTER":"77.9983","INCLINATION":"53.0573","GP_ID":"201625696","REV_AT_EPOCH":"9496","ECCENTRICITY":"0.00014970","NORAD_CAT_ID":"46058","TLE_LINE2":"2 46058  53.0573  12.4158 0001497  77.9983 282.1174 15.06398068 94962","ELEMENT_SET_NO":"999","RCS_SIZE":"LARGE","FILE":"3408368","EPHEMERIS_TYPE":"0","SITE":"AFETR","MEAN_MOTION_DOT":"0.00000976","MEAN_ELEMENT_THEORY":"SGP4","PERIOD":"95.592","MEAN_MOTION_DDOT":"0.0000000000000","LAUNCH_DATE":"2020-08-07"},{"REV_AT_EPOCH":"9492","GP_ID":"201624444","INCLINATION":"53.0568","RCS_SIZE":"LARGE","SITE":"AFETR","FILE":"3408368","EPHEMERIS_TYPE":"0","ECCENTRICITY":"0.00015970","ELEMENT_SET_NO":"999","TLE_LINE2":"2 46059  53.0568  12.3885 0001597  78.4650 281.6518 15.06415134 94927","NORAD_CAT_ID":"46059","MEAN_ELEMENT_THEORY":"SGP4","PERIOD":"95.591","MEAN_MOTION_DOT":"0.00003469","MEAN_MOTION_DDOT":"0.0000000000000","LAUNCH_DATE":"2020-08-07","MEAN_ANOMALY":"281.6518","MEAN_MOTION":"15.06415134","PERIAPSIS":"546.061","CLASSIFICATION_TYPE":"U","COUNTRY_CODE":"US","SEMIMAJOR_AXIS":"6925.302","DECAY_DATE":null,"APOAPSIS":"548.273","TIME_SYSTEM":"UTC","OBJECT_ID":"2020-055AJ","CENTER_NAME":"EARTH","BSTAR":"0.00025159000000","EPOCH":"2022-04-19T10:25:16.041216","ARG_OF_PERICENTER":"78.4650","REF_FRAME":"TEME","OBJECT_NAME":"STARLINK-1570","TLE_LINE1":"1 46059U 20055AJ  22109.43421344  .00003469  00000-0  25159-3 0  9992","OBJECT_TYPE":"PAYLOAD","RA_OF_ASC_NODE":"12.3885"},{"ARG_OF_PERICENTER":"60.4230","OBJECT_NAME":"STARLINK-1572","TLE_LINE1":"1 46060U 20055AK  22109.43053312  .00001241  00000-0  10222-3 0  9991","RA_OF_ASC_NODE":"12.4097","OBJECT_TYPE":"PAYLOAD","REF_FRAME":"TEME","OBJECT_ID":"2020-055AK","CENTER_NAME":"EARTH","APOAPSIS":"548.310","TIME_SYSTEM":"UTC","BSTAR":"0.00010222000000","EPOCH":"2022-04-19T10:19:58.061568","CLASSIFICATION_TYPE":"U","DECAY_DATE":null,"COUNTRY_CODE":"US","SEMIMAJOR_AXIS":"6925.339","MEAN_MOTION":"15.06403011","MEAN_ANOMALY":"299.6918","PERIAPSIS":"546.099","MEAN_MOTION_DDOT":"0.0000000000000","LAUNCH_DATE":"2020-08-07","PERIOD":"95.592","MEAN_ELEMENT_THEORY":"SGP4","MEAN_MOTION_DOT":"0.00001241","FILE":"3408567","SITE":"AFETR","EPHEMERIS_TYPE":"0","RCS_SIZE":"LARGE","TLE_LINE2":"2 46060  53.0557  12.4097 0001596  60.4230 299.6918 15.06403011 94437","ELEMENT_SET_NO":"999","NORAD_CAT_ID":"46060","ECCENTRICITY":"0.00015960","REV_AT_EPOCH":"9443","GP_ID":"201635541","INCLINATION":"53.0557"}];
